STARLINK-31517          
1 59213U 24046N   25343.05147623 -.00002968  00000+0 -88121-4 0  9991
2 59213  53.1604 216.2844 0001444  86.4417 273.6749 15.30195277 99164
STARLINK-31604          
1 59214U 24046P   25342.92399333  .00011701  00000+0  40620-3 0  9998
2 59214  53.1599 216.8818 0001573  88.5691 271.5490 15.30229665 99142
STARLINK-31434          
1 59215U 24046Q   25343.02826301  .00008681  00000+0  30503-3 0  9993
2 59215  53.1599 216.1121 0001411  98.7645 261.3515 15.30182394 99160
STARLINK-31417          
1 59216U 24046R   25342.89035413  .00000513  00000+0  29443-4 0  9992
2 59216  53.1577 217.3866 0001099  94.0645 266.0481 15.30194315 99011
STARLINK-31499          
1 59217U 24046S   25342.97349825  .00000650  00000+0  34099-4 0  9992
2 59217  53.1599 216.4816 0001581  90.5209 269.5973 15.30190831 99152
STARLINK-31421          
1 59218U 24046T   25343.03354057  .00001199  00000+0  52615-4 0  9997
2 59218  53.1598 216.1720 0001395  85.7453 274.3707 15.30192987 99167
STARLINK-31518          
1 59219U 24046U   25343.04514124 -.00000100  00000+0  87484-5 0  9997
2 59219  53.1599 216.2160 0001222  86.6682 273.4459 15.30194078 99168
STARLINK-31523          
1 59220U 24046V   25343.06097073  .00003591  00000+0  13333-3 0  9996
2 59220  53.1582 216.3134 0001471  72.7714 287.3448 15.30198070 99160
STARLINK-31516          
1 59221U 24046W   25342.97033453  .00000309  00000+0  22555-4 0  9999
2 59221  53.1612 216.4623 0001405  84.4614 275.6547 15.30186142 99151
STARLINK-31490          
1 59222U 24046X   25342.95356059  .00002062  00000+0  81744-4 0  9991
2 59222  53.1604 217.0631 0001291  91.3898 268.7250 15.30188578 99141
STARLINK-31420          
1 59223U 24046Y   25343.08101538 -.00002177  00000+0 -61430-4 0  9996
2 59223  53.1575 216.4372 0000772  91.0900 269.0189 15.30192412 99167
STARLINK-31304          
1 59231U 24049A   25343.16668980  .00143867  00000+0  44380-2 0  9999
2 59231  43.0010 283.6869 0005223 174.7936  57.2593 15.32303102  5894
STARLINK-31305          
1 59232U 24049B   25342.57504480 -.00001326  00000+0 -38668-4 0  9997
2 59232  43.0025 297.8818 0001101 262.8053  97.2673 15.27579273 98457
STARLINK-31459          
1 59233U 24049C   25342.91740785  .00000008  00000+0  98211-5 0  9991
2 59233  43.0043 296.1716 0000869 278.7137  81.3616 15.27568440 98518
STARLINK-31438          
1 59234U 24049D   25342.87003694 -.00001164  00000+0 -32794-4 0  9997
2 59234  43.0001 285.4284 0000772 282.3662  77.7103 15.27569061 98634
STARLINK-31467          
1 59235U 24049E   25342.91487330 -.00006450  00000+0 -22528-3 0  9992
2 59235  43.0051 296.1522 0002364 266.2600  93.7982 15.27546872 98522
STARLINK-31444          
1 59236U 24049F   25343.05672609 -.00003263  00000+0 -10921-3 0  9997
2 59236  43.0008 225.8826 0000972 264.7713  95.3028 15.27554989 99317
