[{"OBJECT_NAME":"STARLINK-31517","OBJECT_ID":"2024-046N","EPOCH":"2025-12-09T01:14:07.546272","MEAN_MOTION":15.30195277,"ECCENTRICITY":0.0001444,"INCLINATION":53.1604,"RA_OF_ASC_NODE":216.2844,"ARG_OF_PERICENTER":86.4417,"MEAN_ANOMALY":273.6749,"EPHEMERIS_TYPE":0,"CLASSIFICATION_TYPE":"U","NORAD_CAT_ID":59213,"ELEMENT_SET_NO":999,"REV_AT_EPOCH":9916,"BSTAR":-8.8121e-5,"MEAN_MOTION_DOT":-2.968e-5,"MEAN_MOTION_DDOT":0},{"OBJECT_NAME":"STARLINK-31604","OBJECT_ID":"2024-046P","EPOCH":"2025-12-08T22:10:33.023712","MEAN_MOTION":15.30229665,"ECCENTRICITY":0.0001573,"INCLINATION":53.1599,"RA_OF_ASC_NODE":216.8818,"ARG_OF_PERICENTER":88.5691,"MEAN_ANOMALY":271.549,"EPHEMERIS_TYPE":0,"CLASSIFICATION_TYPE":"U","NORAD_CAT_ID":59214,"ELEMENT_SET_NO":999,"REV_AT_EPOCH":9914,"BSTAR":0.0004062,"MEAN_MOTION_DOT":0.00011701,"MEAN_MOTION_DDOT":0},{"OBJECT_NAME":"STARLINK-31434","OBJECT_ID":"2024-046Q","EPOCH":"2025-12-09T00:40:41.924064","MEAN_MOTION":15.30182394,"ECCENTRICITY":0.0001411,"INCLINATION":53.1599,"RA_OF_ASC_NODE":216.1121,"ARG_OF_PERICENTER":98.7645,"MEAN_ANOMALY":261.3515,"EPHEMERIS_TYPE":0,"CLASSIFICATION_TYPE":"U","NORAD_CAT_ID":59215,"ELEMENT_SET_NO":999,"REV_AT_EPOCH":9916,"BSTAR":0.00030503,"MEAN_MOTION_DOT":8.681e-5,"MEAN_MOTION_DDOT":0},{"OBJECT_NAME":"STARLINK-31417","OBJECT_ID":"2024-046R","EPOCH":"2025-12-08T21:22:06.596832","MEAN_MOTION":15.30194315,"ECCENTRICITY":0.0001099,"INCLINATION":53.1577,"RA_OF_ASC_NODE":217.3866,"ARG_OF_PERICENTER":94.0645,"MEAN_ANOMALY":266.0481,"EPHEMERIS_TYPE":0,"CLASSIFICATION_TYPE":"U","NORAD_CAT_ID":59216,"ELEMENT_SET_NO":999,"REV_AT_EPOCH":9901,"BSTAR":2.9443e-5,"MEAN_MOTION_DOT":5.13e-6,"MEAN_MOTION_DDOT":0},{"OBJECT_NAME":"STARLINK-31499","OBJECT_ID":"2024-046S","EPOCH":"2025-12-08T23:21:50.248800","MEAN_MOTION":15.30190831,"ECCENTRICITY":0.0001581,"INCLINATION":53.1599,"RA_OF_ASC_NODE":216.4816,"ARG_OF_PERICENTER":90.5209,"MEAN_ANOMALY":269.5973,"EPHEMERIS_TYPE":0,"CLASSIFICATION_TYPE":"U","NORAD_CAT_ID":59217,"ELEMENT_SET_NO":999,"REV_AT_EPOCH":9915,"BSTAR":3.4099e-5,"MEAN_MOTION_DOT":6.5e-6,"MEAN_MOTION_DDOT":0},{"OBJECT_NAME":"STARLINK-31421","OBJECT_ID":"2024-046T","EPOCH":"2025-12-09T00:48:17.905248","MEAN_MOTION":15.30192987,"ECCENTRICITY":0.0001395,"INCLINATION":53.1598,"RA_OF_ASC_NODE":216.172,"ARG_OF_PERICENTER":85.7453,"MEAN_ANOMALY":274.3707,"EPHEMERIS_TYPE":0,"CLASSIFICATION_TYPE":"U","NORAD_CAT_ID":59218,"ELEMENT_SET_NO":999,"REV_AT_EPOCH":9916,"BSTAR":5.2615e-5,"MEAN_MOTION_DOT":1.199e-5,"MEAN_MOTION_DDOT":0},{"OBJECT_NAME":"STARLINK-31518","OBJECT_ID":"2024-046U","EPOCH":"2025-12-09T01:05:00.203136","MEAN_MOTION":15.30194078,"ECCENTRICITY":0.0001222,"INCLINATION":53.1599,"RA_OF_ASC_NODE":216.216,"ARG_OF_PERICENTER":86.6682,"MEAN_ANOMALY":273.4459,"EPHEMERIS_TYPE":0,"CLASSIFICATION_TYPE":"U","NORAD_CAT_ID":59219,"ELEMENT_SET_NO":999,"REV_AT_EPOCH":9916,"BSTAR":8.7484e-6,"MEAN_MOTION_DOT":-1.0e-6,"MEAN_MOTION_DDOT":0},{"OBJECT_NAME":"STARLINK-31523","OBJECT_ID":"2024-046V","EPOCH":"2025-12-09T01:27:47.871072","MEAN_MOTION":15.3019807,"ECCENTRICITY":0.0001471,"INCLINATION":53.1582,"RA_OF_ASC_NODE":216.3134,"ARG_OF_PERICENTER":72.7714,"MEAN_ANOMALY":287.3448,"EPHEMERIS_TYPE":0,"CLASSIFICATION_TYPE":"U","NORAD_CAT_ID":59220,"ELEMENT_SET_NO":999,"REV_AT_EPOCH":9916,"BSTAR":0.00013333,"MEAN_MOTION_DOT":3.591e-5,"MEAN_MOTION_DDOT":0},{"OBJECT_NAME":"STARLINK-31516","OBJECT_ID":"2024-046W","EPOCH":"2025-12-08T23:17:16.903392","MEAN_MOTION":15.30186142,"ECCENTRICITY":0.0001405,"INCLINATION":53.1612,"RA_OF_ASC_NODE":216.4623,"ARG_OF_PERICENTER":84.4614,"MEAN_ANOMALY":275.6547,"EPHEMERIS_TYPE":0,"CLASSIFICATION_TYPE":"U","NORAD_CAT_ID":59221,"ELEMENT_SET_NO":999,"REV_AT_EPOCH":9915,"BSTAR":2.2555e-5,"MEAN_MOTION_DOT":3.09e-6,"MEAN_MOTION_DDOT":0},{"OBJECT_NAME":"STARLINK-31490","OBJECT_ID":"2024-046X","EPOCH":"2025-12-08T22:53:07.634976","MEAN_MOTION":15.30188578,"ECCENTRICITY":0.0001291,"INCLINATION":53.1604,"RA_OF_ASC_NODE":217.0631,"ARG_OF_PERICENTER":91.3898,"MEAN_ANOMALY":268.725,"EPHEMERIS_TYPE":0,"CLASSIFICATION_TYPE":"U","NORAD_CAT_ID":59222,"ELEMENT_SET_NO":999,"REV_AT_EPOCH":9914,"BSTAR":8.1744e-5,"MEAN_MOTION_DOT":2.062e-5,"MEAN_MOTION_DDOT":0},{"OBJECT_NAME":"STARLINK-31420","OBJECT_ID":"2024-046Y","EPOCH":"2025-12-09T01:56:39.728832","MEAN_MOTION":15.30192412,"ECCENTRICITY":7.72e-5,"INCLINATION":53.1575,"RA_OF_ASC_NODE":216.4372,"ARG_OF_PERICENTER":91.09,"MEAN_ANOMALY":269.0189,"EPHEMERIS_TYPE":0,"CLASSIFICATION_TYPE":"U","NORAD_CAT_ID":59223,"ELEMENT_SET_NO":999,"REV_AT_EPOCH":9916,"BSTAR":-6.143e-5,"MEAN_MOTION_DOT":-2.177e-5,"MEAN_MOTION_DDOT":0},{"OBJECT_NAME":"STARLINK-31304","OBJECT_ID":"2024-049A","EPOCH":"2025-12-09T04:00:01.998720","MEAN_MOTION":15.32303102,"ECCENTRICITY":0.0005223,"INCLINATION":43.001,"RA_OF_ASC_NODE":283.6869,"ARG_OF_PERICENTER":174.7936,"MEAN_ANOMALY":57.2593,"EPHEMERIS_TYPE":0,"CLASSIFICATION_TYPE":"U","NORAD_CAT_ID":59231,"ELEMENT_SET_NO":999,"REV_AT_EPOCH":589,"BSTAR":0.004438,"MEAN_MOTION_DOT":0.00143867,"MEAN_MOTION_DDOT":0},{"OBJECT_NAME":"STARLINK-31305","OBJECT_ID":"2024-049B","EPOCH":"2025-12-08T13:48:03.870720","MEAN_MOTION":15.27579273,"ECCENTRICITY":0.0001101,"INCLINATION":43.0025,"RA_OF_ASC_NODE":297.8818,"ARG_OF_PERICENTER":262.8053,"MEAN_ANOMALY":97.2673,"EPHEMERIS_TYPE":0,"CLASSIFICATION_TYPE":"U","NORAD_CAT_ID":59232,"ELEMENT_SET_NO":999,"REV_AT_EPOCH":9845,"BSTAR":-3.8668e-5,"MEAN_MOTION_DOT":-1.326e-5,"MEAN_MOTION_DDOT":0},{"OBJECT_NAME":"STARLINK-31459","OBJECT_ID":"2024-049C","EPOCH":"2025-12-08T22:01:04.038240","MEAN_MOTION":15.2756844,"ECCENTRICITY":8.69e-5,"INCLINATION":43.0043,"RA_OF_ASC_NODE":296.1716,"ARG_OF_PERICENTER":278.7137,"MEAN_ANOMALY":81.3616,"EPHEMERIS_TYPE":0,"CLASSIFICATION_TYPE":"U","NORAD_CAT_ID":59233,"ELEMENT_SET_NO":999,"REV_AT_EPOCH":9851,"BSTAR":9.8211e-6,"MEAN_MOTION_DOT":8.0e-8,"MEAN_MOTION_DDOT":0},{"OBJECT_NAME":"STARLINK-31438","OBJECT_ID":"2024-049D","EPOCH":"2025-12-08T20:52:51.191616","MEAN_MOTION":15.27569061,"ECCENTRICITY":7.72e-5,"INCLINATION":43.0001,"RA_OF_ASC_NODE":285.4284,"ARG_OF_PERICENTER":282.3662,"MEAN_ANOMALY":77.7103,"EPHEMERIS_TYPE":0,"CLASSIFICATION_TYPE":"U","NORAD_CAT_ID":59234,"ELEMENT_SET_NO":999,"REV_AT_EPOCH":9863,"BSTAR":-3.2794e-5,"MEAN_MOTION_DOT":-1.164e-5,"MEAN_MOTION_DDOT":0},{"OBJECT_NAME":"STARLINK-31467","OBJECT_ID":"2024-049E","EPOCH":"2025-12-08T21:57:25.053120","MEAN_MOTION":15.27546872,"ECCENTRICITY":0.0002364,"INCLINATION":43.0051,"RA_OF_ASC_NODE":296.1522,"ARG_OF_PERICENTER":266.26,"MEAN_ANOMALY":93.7982,"EPHEMERIS_TYPE":0,"CLASSIFICATION_TYPE":"U","NORAD_CAT_ID":59235,"ELEMENT_SET_NO":999,"REV_AT_EPOCH":9852,"BSTAR":-0.00022528,"MEAN_MOTION_DOT":-6.45e-5,"MEAN_MOTION_DDOT":0},{"OBJECT_NAME":"STARLINK-31444","OBJECT_ID":"2024-049F","EPOCH":"2025-12-09T01:21:41.134176","MEAN_MOTION":15.27554989,"ECCENTRICITY":9.72e-5,"INCLINATION":43.0008,"RA_OF_ASC_NODE":225.8826,"ARG_OF_PERICENTER":264.7713,"MEAN_ANOMALY":95.3028,"EPHEMERIS_TYPE":0,"CLASSIFICATION_TYPE":"U","NORAD_CAT_ID":59236,"ELEMENT_SET_NO":999,"REV_AT_EPOCH":9931,"BSTAR":-0.00010921,"MEAN_MOTION_DOT":-3.263e-5,"MEAN_MOTION_DDOT":0}]
